{
  "54831": {
    "noradId": "54831",
    "tle": [
      "1 54831C 22177M   26126.94354167  .00057565  00000+0  20868-2 0  1261",
      "2 54831  42.9998 167.0501 0000877 264.8735  63.1323 15.27521832    16"
    ]
  },
  "54834": {
    "noradId": "54834",
    "tle": [
      "1 54834C 22177Q   26126.93798611 -.00005428  00000+0 -19663-3 0  1264",
      "2 54834  43.0006 167.5006 0001791 268.3362 212.2729 15.27575688    12"
    ]
  },
  "54835": {
    "noradId": "54835",
    "tle": [
      "1 54835C 22177R   26126.95187500  .00014570  00000+0  54142-3 0  1263",
      "2 54835  43.0032 167.2556 0001885 276.7916 354.4006 15.26728668    15"
    ]
  },
  "54836": {
    "noradId": "54836",
    "tle": [
      "1 54836C 22177S   26126.90465278  .01001800  00000+0  49787-2 0  1261",
      "2 54836  42.9996 148.7085 0001833 267.2807   5.2924 15.80472313    14"
    ]
  },
  "54837": {
    "noradId": "54837",
    "tle": [
      "1 54837C 22177T   26126.90534722  .01164300  00000+0  33751-2 0  1262",
      "2 54837  42.9964 157.4145 0001980 283.6255 286.5494 15.91374127    18"
    ]
  },
  "54838": {
    "noradId": "54838",
    "tle": [
      "1 54838C 22177U   26126.89840278 -.00005187  00000+0 -18789-3 0  1260",
      "2 54838  43.0013 164.1243 0001604 268.9981  75.8769 15.27573911    10"
    ]
  },
  "54840": {
    "noradId": "54840",
    "tle": [
      "1 54840C 22177W   26126.94701389  .00016990  00000+0  61554-3 0  1268",
      "2 54840  43.0012 163.7652 0001998 282.3149   5.5789 15.27560387    18"
    ]
  },
  "54841": {
    "noradId": "54841",
    "tle": [
      "1 54841C 22177X   26126.95395833  .00018146  00000+0  65755-3 0  1265",
      "2 54841  43.0008 163.8601 0001898 265.3501   4.1463 15.27553382    12"
    ]
  },
  "54842": {
    "noradId": "54842",
    "tle": [
      "1 54842C 22177Y   26126.92895833  .00007171  00000+0  25968-3 0  1266",
      "2 54842  43.0024 163.7598 0001432 273.2602 317.6295 15.27579624    11"
    ]
  },
  "54843": {
    "noradId": "54843",
    "tle": [
      "1 54843C 22177Z   26126.89909722 -.00005996  00000+0 -21718-3 0  1260",
      "2 54843  43.0011 164.2004 0001631 266.4657  46.8456 15.27579333    18"
    ]
  },
  "54844": {
    "noradId": "54844",
    "tle": [
      "1 54844C 22177AA  26126.89284722 -.00013252  00000+0 -48008-3 0  1262",
      "2 54844  43.0011 167.0239 0001604 259.4220 269.8166 15.27578467    10"
    ]
  },
  "54845": {
    "noradId": "54845",
    "tle": [
      "1 54845C 22177AB  26126.94145833  .00014787  00000+0  53593-3 0  1265",
      "2 54845  43.0008 163.7511 0001762 266.8168  11.6646 15.27549205    15"
    ]
  },
  "54846": {
    "noradId": "54846",
    "tle": [
      "1 54846C 22177AC  26126.92756944  .00040946  00000+0  14834-2 0  1265",
      "2 54846  43.0011 163.7363 0001782 283.3970 313.9075 15.27550029    12"
    ]
  },
  "54847": {
    "noradId": "54847",
    "tle": [
      "1 54847C 22177AD  26126.92965278  .00024841  00000+0  90000-3 0  1264",
      "2 54847  43.0001 141.3799 0001938 265.9822 229.5971 15.27555535    16"
    ]
  },
  "54848": {
    "noradId": "54848",
    "tle": [
      "1 54848C 22177AE  26126.92201389  .00022226  00000+0  80496-3 0  1264",
      "2 54848  42.9997 152.8105 0001069 271.5459 153.7297 15.27570954    12"
    ]
  },
  "54850": {
    "noradId": "54850",
    "tle": [
      "1 54850C 22177AG  26126.88798611  .00006654  00000+0  24107-3 0  1265",
      "2 54850  43.0015 152.6742 0000949 235.0610 137.3145 15.27564401    13"
    ]
  },
  "54851": {
    "noradId": "54851",
    "tle": [
      "1 54851C 22177AH  26126.94284722  .00027378  00000+0  99219-3 0  1268",
      "2 54851  43.0008 152.3159 0001723 263.3678  72.2920 15.27546055    17"
    ]
  },
  "54852": {
    "noradId": "54852",
    "tle": [
      "1 54852C 22177AJ  26126.94493056  .00029032  00000+0  10518-2 0  1264",
      "2 54852  43.0007 152.2202 0001852 265.2396 117.2265 15.27554024    13"
    ]
  },
  "54853": {
    "noradId": "54853",
    "tle": [
      "1 54853C 22177AK  26126.92409722  .00015811  00000+0  57328-3 0  1261",
      "2 54853  43.0013 152.5048 0001025 282.4582 274.5836 15.27535537    11"
    ]
  },
  "54855": {
    "noradId": "54855",
    "tle": [
      "1 54855C 22177AM  26126.88937500 -.00009725  00000+0 -35275-3 0  1264",
      "2 54855  43.0014 152.6329 0001099 285.0387 109.1209 15.27535647    19"
    ]
  },
  "54856": {
    "noradId": "54856",
    "tle": [
      "1 54856C 22177AN  26126.89909722  .00009610  00000+0  34817-3 0  1263",
      "2 54856  43.0012 153.0000 0001407 270.9972 359.8060 15.27563207    17"
    ]
  },
  "54857": {
    "noradId": "54857",
    "tle": [
      "1 54857C 22177AP  26126.89493056  .00010751  00000+0  38951-3 0  1263",
      "2 54857  43.0007 152.7876 0001422 262.1670  84.7624 15.27563206    13"
    ]
  },
  "54858": {
    "noradId": "54858",
    "tle": [
      "1 54858C 22177AQ  26126.88451389  .00004363  00000+0  16213-3 0  1265",
      "2 54858  43.0014 152.7053 0001492 265.0297  82.4120 15.26735276    16"
    ]
  },
  "54859": {
    "noradId": "54859",
    "tle": [
      "1 54859C 22177AR  26126.92687500  .00021950  00000+0  79530-3 0  1269",
      "2 54859  43.0002 152.7907 0001048 262.9170 182.0484 15.27557504    12"
    ]
  },
  "54860": {
    "noradId": "54860",
    "tle": [
      "1 54860C 22177AS  26126.95048611  .00022108  00000+0  82165-3 0  1262",
      "2 54860  43.0004 152.6911 0001106 268.5789 292.6186 15.26720872    19"
    ]
  },
  "54861": {
    "noradId": "54861",
    "tle": [
      "1 54861C 22177AT  26126.92895833  .00021098  00000+0  78387-3 0  1264",
      "2 54861  43.0011 152.3256 0001882 269.1497  20.4493 15.26730364    16"
    ]
  },
  "54862": {
    "noradId": "54862",
    "tle": [
      "1 54862C 22177AU  26126.92270833  .00016913  00000+0  61285-3 0  1261",
      "2 54862  43.0012 152.6793 0000949 261.0578 224.6283 15.27556026    18"
    ]
  },
  "54863": {
    "noradId": "54863",
    "tle": [
      "1 54863C 22177AV  26126.93451389  .00019403  00000+0  70307-3 0  1262",
      "2 54863  43.0004 152.6622 0000990 261.7306 260.6870 15.27555737    13"
    ]
  },
  "54864": {
    "noradId": "54864",
    "tle": [
      "1 54864C 22177AW  26126.89701389  .00005343  00000+0  19356-3 0  1261",
      "2 54864  43.0024 153.1538 0001978 274.7945 280.9005 15.27565766    16"
    ]
  },
  "54865": {
    "noradId": "54865",
    "tle": [
      "1 54865C 22177AX  26126.92062500  .00016564  00000+0  60012-3 0  1263",
      "2 54865  43.0000 152.6905 0001344 256.2319 210.9316 15.27560348    19"
    ]
  },
  "54866": {
    "noradId": "54866",
    "tle": [
      "1 54866C 22177AY  26126.93173611  .00024510  00000+0  88800-3 0  1266",
      "2 54866  43.0017 152.2535 0002055 261.9990  61.9657 15.27555291    14"
    ]
  },
  "54867": {
    "noradId": "54867",
    "tle": [
      "1 54867C 22177AZ  26126.91090278  .00015785  00000+0  57191-3 0  1265",
      "2 54867  43.0016 153.0321 0001645 270.9842  22.3675 15.27559796    11"
    ]
  },
  "54868": {
    "noradId": "54868",
    "tle": [
      "1 54868C 22177BA  26126.93520833  .00015039  00000+0  54481-3 0  1264",
      "2 54868  43.0013 152.3292 0001607 261.9889  38.6587 15.27565929    14"
    ]
  },
  "54869": {
    "noradId": "54869",
    "tle": [
      "1 54869C 22177BB  26126.94701389  .00028424  00000+0  10298-2 0  1262",
      "2 54869  43.0016 153.0091 0002026 263.4175 150.9318 15.27554244    12"
    ]
  },
  "54870": {
    "noradId": "54870",
    "tle": [
      "1 54870C 22177BC  26126.88659722  .00003662  00000+0  13606-3 0  1264",
      "2 54870  43.0015 152.5064 0001995 267.2339 170.5044 15.26740755    12"
    ]
  },
  "54871": {
    "noradId": "54871",
    "tle": [
      "1 54871C 22177BD  26126.94562500  .00027230  00000+0  98656-3 0  1264",
      "2 54871  43.0019 152.9643 0002019 264.4262 163.5046 15.27554741    19"
    ]
  },
  "54873": {
    "noradId": "54873",
    "tle": [
      "1 54873C 22177BF  26126.93173611  .00022006  00000+0  79735-3 0  1269",
      "2 54873  43.0004 152.7717 0001235 264.6067 200.0583 15.27556094    15"
    ]
  },
  "55269": {
    "noradId": "55269",
    "tle": [
      "1 55269C 23010A   26126.94493056 -.00040764  00000+0 -34150-2 0  1269",
      "2 55269  70.0008 257.6515 0003365 273.2262 313.8877 14.98363555    13"
    ]
  },
  "55271": {
    "noradId": "55271",
    "tle": [
      "1 55271C 23010C   26126.92756944 -.00031074  00000+0 -26041-2 0  1262",
      "2 55271  70.0008 257.7203 0003254 274.1419 196.9094 14.98346039    11"
    ]
  },
  "55272": {
    "noradId": "55272",
    "tle": [
      "1 55272C 23010D   26126.92826389 -.00033355  00000+0 -27962-2 0  1261",
      "2 55272  70.0008 257.6215 0003155 271.3505 293.4783 14.98333895    13"
    ]
  },
  "55273": {
    "noradId": "55273",
    "tle": [
      "1 55273C 23010E   26126.91090278 -.00026699  00000+0 -22376-2 0  1268",
      "2 55273  70.0010 257.5156 0003097 275.3508 330.9289 14.98342030    11"
    ]
  },
  "55274": {
    "noradId": "55274",
    "tle": [
      "1 55274C 23010F   26126.94006944 -.00050988  00000+0 -42737-2 0  1260",
      "2 55274  70.0011 237.7443 0003114 270.1222 337.0725 14.98350583    13"
    ]
  },
  "55275": {
    "noradId": "55275",
    "tle": [
      "1 55275C 23010G   26126.94631944 -.00043922  00000+0 -36853-2 0  1267",
      "2 55275  70.0010 237.6804 0003308 270.9372  54.0546 14.98305404    11"
    ]
  },
  "55276": {
    "noradId": "55276",
    "tle": [
      "1 55276C 23010H   26126.94562500 -.00052562  00000+0 -44055-2 0  1262",
      "2 55276  70.0011 237.6797 0003312 273.5713  48.6002 14.98351001    17"
    ]
  },
  "55277": {
    "noradId": "55277",
    "tle": [
      "1 55277C 23010J   26126.91576389 -.00024947  00000+0 -20908-2 0  1267",
      "2 55277  70.0008 257.6742 0003300 273.2575 201.6596 14.98339431    18"
    ]
  }
}